[{"OBJECT_NAME":"YUNHAI-3 02","OBJECT_ID":"2024-058A","EPOCH":"2026-03-10T00:11:17.100384","MEAN_MOTION":14.13462602,"ECCENTRICITY":8.134e-5,"INCLINATION":98.8243,"RA_OF_ASC_NODE":78.2315,"ARG_OF_PERICENTER":102.5423,"MEAN_ANOMALY":257.5841,"EPHEMERIS_TYPE":0,"CLASSIFICATION_TYPE":"U","NORAD_CAT_ID":59343,"ELEMENT_SET_NO":999,"REV_AT_EPOCH":10073,"BSTAR":5.3421416e-5,"MEAN_MOTION_DOT":5.7e-7,"MEAN_MOTION_DDOT":0},{"OBJECT_NAME":"CZ-6A DEB","OBJECT_ID":"2024-140BP","EPOCH":"2026-03-09T14:06:10.634976","MEAN_MOTION":14.09854183,"ECCENTRICITY":0.0094428,"INCLINATION":88.9653,"RA_OF_ASC_NODE":284.997,"ARG_OF_PERICENTER":156.3735,"MEAN_ANOMALY":204.183,"EPHEMERIS_TYPE":0,"CLASSIFICATION_TYPE":"U","NORAD_CAT_ID":60662,"ELEMENT_SET_NO":999,"REV_AT_EPOCH":8139,"BSTAR":0.00015954,"MEAN_MOTION_DOT":3.07e-6,"MEAN_MOTION_DDOT":0}]
